[
    {
        "Altitude(m)": 607897.6097263987,
        "Argument of Periapsis(deg)": 0.0,
        "Eccentricity": 0.0,
        "Inclination(deg)": 60.0,
        "Latitude(deg)": -14.29290684321127,
        "Longitude(deg)": 56.618774745805275,
        "Mean Anomaly(deg)": -16.363600000000062,
        "RAAN(deg)": 165.0,
        "Satellite Name": "Test1 747",
        "Satellite Number": 747,
        "Semi-Major Axis(m)": 6980739.136638005,
        "Time(s)": 0
    },
    {
        "Altitude(m)": 607750.8111142243,
        "Argument of Periapsis(deg)": 0.00010418945913296404,
        "Eccentricity": 0.0,
        "Inclination(deg)": 60.0,
        "Latitude(deg)": -13.758747851661536,
        "Longitude(deg)": 56.90584287531405,
        "Mean Anomaly(deg)": -15.74349385453821,
        "RAAN(deg)": 164.99957995086024,
        "Satellite Name": "Test1 747",
        "Satellite Number": 747,
        "Semi-Major Axis(m)": 6980739.136638005,
        "Time(s)": 10
    }
]